{
  "type": "FeatureCollection",
  "features": [
    {
      "type": "Feature",
      "properties": {
        "norad_id": 52912,
        "name": "GAOFEN-12 03",
        "group": "resource",
        "lat": -66.96027682514884,
        "lon": -94.0870045584579,
        "alt_km": 638.255588490756,
        "timestamp": "2025-12-25T22:42:16.654281+00:00",
        "meta_object_name": "GAOFEN-12 03",
        "meta_object_id": "2022-069A",
        "meta_epoch": "2025-12-25T18:08:37.339872",
        "meta_mean_motion": 14.79638837,
        "meta_eccentricity": 0.0001778,
        "meta_inclination": 97.8476,
        "meta_ra_of_asc_node": 246.8043,
        "meta_arg_of_pericenter": 48.0075,
        "meta_mean_anomaly": 312.1288,
        "meta_ephemeris_type": 0,
        "meta_classification_type": "U",
        "meta_norad_cat_id": 52912,
        "meta_element_set_no": 999,
        "meta_rev_at_epoch": 18896,
        "meta_bstar": 0.00013589,
        "meta_mean_motion_dot": 9.68e-06,
        "meta_mean_motion_ddot": 0,
        "tle_line1": "1 52912U 22069A   25359.75598773  .00000968  00000+0  13589-3 0  9994",
        "tle_line2": "2 52912  97.8476 246.8043 0001778  48.0075 312.1288 14.79638837188969"
      },
      "geometry": {
        "type": "Point",
        "coordinates": [
          -94.0870045584579,
          -66.96027682514884
        ]
      }
    },
    {
      "type": "Feature",
      "properties": {
        "norad_id": 54754,
        "name": "SWOT",
        "group": "resource",
        "lat": 73.69119525845855,
        "lon": 40.46528994483069,
        "alt_km": 885.7014838659607,
        "timestamp": "2025-12-25T22:42:16.654292+00:00",
        "meta_object_name": "SWOT",
        "meta_object_id": "2022-173A",
        "meta_epoch": "2025-12-25T17:04:51.521088",
        "meta_mean_motion": 14.00168822,
        "meta_eccentricity": 4.24e-05,
        "meta_inclination": 77.6108,
        "meta_ra_of_asc_node": 269.4796,
        "meta_arg_of_pericenter": 81.7202,
        "meta_mean_anomaly": 278.3998,
        "meta_ephemeris_type": 0,
        "meta_classification_type": "U",
        "meta_norad_cat_id": 54754,
        "meta_element_set_no": 999,
        "meta_rev_at_epoch": 15487,
        "meta_bstar": 8.8103e-05,
        "meta_mean_motion_dot": 1.27e-06,
        "meta_mean_motion_ddot": 0,
        "tle_line1": "1 54754U 22173A   25359.71170742  .00000127  00000+0  88103-4 0  9996",
        "tle_line2": "2 54754  77.6108 269.4796 0000424  81.7202 278.3998 14.00168822154872"
      },
      "geometry": {
        "type": "Point",
        "coordinates": [
          40.46528994483069,
          73.69119525845855
        ]
      }
    },
    {
      "type": "Feature",
      "properties": {
        "norad_id": 57654,
        "name": "GAOFEN-12 04",
        "group": "resource",
        "lat": 72.20745388763511,
        "lon": 121.18642755169391,
        "alt_km": 622.4527239398076,
        "timestamp": "2025-12-25T22:42:16.654302+00:00",
        "meta_object_name": "GAOFEN-12 04",
        "meta_object_id": "2023-123A",
        "meta_epoch": "2025-12-25T18:58:54.541056",
        "meta_mean_motion": 14.79737013,
        "meta_eccentricity": 0.0001199,
        "meta_inclination": 97.9129,
        "meta_ra_of_asc_node": 275.3507,
        "meta_arg_of_pericenter": 80.0779,
        "meta_mean_anomaly": 280.0568,
        "meta_ephemeris_type": 0,
        "meta_classification_type": "U",
        "meta_norad_cat_id": 57654,
        "meta_element_set_no": 999,
        "meta_rev_at_epoch": 12698,
        "meta_bstar": 0.0001996,
        "meta_mean_motion_dot": 1.449e-05,
        "meta_mean_motion_ddot": 0,
        "tle_line1": "1 57654U 23123A   25359.79090904  .00001449  00000+0  19960-3 0  9995",
        "tle_line2": "2 57654  97.9129 275.3507 0001199  80.0779 280.0568 14.79737013126983"
      },
      "geometry": {
        "type": "Point",
        "coordinates": [
          121.18642755169391,
          72.20745388763511
        ]
      }
    },
    {
      "type": "Feature",
      "properties": {
        "norad_id": 59065,
        "name": "PARS 1",
        "group": "resource",
        "lat": 2.7972273640103578,
        "lon": 151.52949660027357,
        "alt_km": 451.53217775200574,
        "timestamp": "2025-12-25T22:42:16.654313+00:00",
        "meta_object_name": "PARS 1",
        "meta_object_id": "2024-039Q",
        "meta_epoch": "2025-12-25T18:49:23.220192",
        "meta_mean_motion": 15.41269995,
        "meta_eccentricity": 0.0011466,
        "meta_inclination": 97.4655,
        "meta_ra_of_asc_node": 330.9971,
        "meta_arg_of_pericenter": 32.193,
        "meta_mean_anomaly": 328.0014,
        "meta_ephemeris_type": 0,
        "meta_classification_type": "U",
        "meta_norad_cat_id": 59065,
        "meta_element_set_no": 999,
        "meta_rev_at_epoch": 10189,
        "meta_bstar": 0.00030416,
        "meta_mean_motion_dot": 0.000126,
        "meta_mean_motion_ddot": 0,
        "tle_line1": "1 59065U 24039Q   25359.78429653  .00012600  00000+0  30416-3 0  9996",
        "tle_line2": "2 59065  97.4655 330.9971 0011466  32.1930 328.0014 15.41269995101899"
      },
      "geometry": {
        "type": "Point",
        "coordinates": [
          151.52949660027357,
          2.7972273640103578
        ]
      }
    },
    {
      "type": "Feature",
      "properties": {
        "norad_id": 59371,
        "name": "RESURS-P 4",
        "group": "resource",
        "lat": -71.07628315303222,
        "lon": 104.18957820490272,
        "alt_km": 477.0966728387011,
        "timestamp": "2025-12-25T22:42:16.654323+00:00",
        "meta_object_name": "RESURS-P 4",
        "meta_object_id": "2024-061A",
        "meta_epoch": "2025-12-25T18:28:16.898592",
        "meta_mean_motion": 15.3219988,
        "meta_eccentricity": 7.94e-05,
        "meta_inclination": 97.2563,
        "meta_ra_of_asc_node": 305.8344,
        "meta_arg_of_pericenter": 84.7975,
        "meta_mean_anomaly": 275.3357,
        "meta_ephemeris_type": 0,
        "meta_classification_type": "U",
        "meta_norad_cat_id": 59371,
        "meta_element_set_no": 999,
        "meta_rev_at_epoch": 9720,
        "meta_bstar": 0.00013826,
        "meta_mean_motion_dot": 4.222e-05,
        "meta_mean_motion_ddot": 0,
        "tle_line1": "1 59371U 24061A   25359.76964003  .00004222  00000+0  13826-3 0  9999",
        "tle_line2": "2 59371  97.2563 305.8344 0000794  84.7975 275.3357 15.32199880 97202"
      },
      "geometry": {
        "type": "Point",
        "coordinates": [
          104.18957820490272,
          -71.07628315303222
        ]
      }
    },
    {
      "type": "Feature",
      "properties": {
        "norad_id": 59625,
        "name": "LEGION 1",
        "group": "resource",
        "lat": 79.4511189513278,
        "lon": -60.35039377251901,
        "alt_km": 511.0678354011752,
        "timestamp": "2025-12-25T22:42:16.654334+00:00",
        "meta_object_name": "LEGION 1",
        "meta_object_id": "2024-081A",
        "meta_epoch": "2025-12-25T17:31:33.758112",
        "meta_mean_motion": 15.16605851,
        "meta_eccentricity": 0.0003619,
        "meta_inclination": 97.5193,
        "meta_ra_of_asc_node": 74.2577,
        "meta_arg_of_pericenter": 256.6283,
        "meta_mean_anomaly": 103.4547,
        "meta_ephemeris_type": 0,
        "meta_classification_type": "U",
        "meta_norad_cat_id": 59625,
        "meta_element_set_no": 999,
        "meta_rev_at_epoch": 9124,
        "meta_bstar": 0.00025914,
        "meta_mean_motion_dot": 4.997e-05,
        "meta_mean_motion_ddot": 0,
        "tle_line1": "1 59625U 24081A   25359.73025183  .00004997  00000+0  25914-3 0  9997",
        "tle_line2": "2 59625  97.5193  74.2577 0003619 256.6283 103.4547 15.16605851 91244"
      },
      "geometry": {
        "type": "Point",
        "coordinates": [
          -60.35039377251901,
          79.4511189513278
        ]
      }
    },
    {
      "type": "Feature",
      "properties": {
        "norad_id": 59626,
        "name": "LEGION 2",
        "group": "resource",
        "lat": -79.1701851826357,
        "lon": 118.22939890507406,
        "alt_km": 520.3792880146239,
        "timestamp": "2025-12-25T22:42:16.654344+00:00",
        "meta_object_name": "LEGION 2",
        "meta_object_id": "2024-081B",
        "meta_epoch": "2025-12-25T16:43:57.552096",
        "meta_mean_motion": 15.16618674,
        "meta_eccentricity": 0.0005826,
        "meta_inclination": 97.5196,
        "meta_ra_of_asc_node": 74.313,
        "meta_arg_of_pericenter": 237.7975,
        "meta_mean_anomaly": 122.2694,
        "meta_ephemeris_type": 0,
        "meta_classification_type": "U",
        "meta_norad_cat_id": 59626,
        "meta_element_set_no": 999,
        "meta_rev_at_epoch": 9124,
        "meta_bstar": 0.00030161,
        "meta_mean_motion_dot": 5.831e-05,
        "meta_mean_motion_ddot": 0,
        "tle_line1": "1 59626U 24081B   25359.69719389  .00005831  00000+0  30161-3 0  9999",
        "tle_line2": "2 59626  97.5196  74.3130 0005826 237.7975 122.2694 15.16618674 91243"
      },
      "geometry": {
        "type": "Point",
        "coordinates": [
          118.22939890507406,
          -79.1701851826357
        ]
      }
    }
  ]
}